Satellite: VELOX 2
Catalog number: 41171
Epoch time:      16167.03831278
Element set:     999 
Inclination:       14.9892 deg
RA of node:       330.6921 deg
Eccentricity:    0.0009910
Arg of perigee:   317.3770 deg
Mean anomaly:      42.5795 deg
Mean motion:   15.08728583 rev/day
Decay rate:      2.328E-05 rev/day^2
Epoch rev:            2741
Checksum:              437

Satellite: AGGIESAT 4
Catalog number: 41313
Epoch time:      16167.86666317
Element set:     999 
Inclination:       51.6464 deg
RA of node:        61.7569 deg
Eccentricity:    0.0004117
Arg of perigee:   187.3116 deg
Mean anomaly:     172.7816 deg
Mean motion:   15.59531932 rev/day
Decay rate:     1.4179E-04 rev/day^2
Epoch rev:            2152
Checksum:              321

Satellite: BEVO 2
Catalog number: 41314
Epoch time:      16168.14184113
Element set:     999 
Inclination:       51.6405 deg
RA of node:        59.0267 deg
Eccentricity:    0.0003543
Arg of perigee:   181.6746 deg
Mean anomaly:     178.4286 deg
Mean motion:   15.61953318 rev/day
Decay rate:     2.3201E-04 rev/day^2
Epoch rev:            2138
Checksum:              292

Satellite: CHUBUSAT-2
Catalog number: 41338
Epoch time:      16167.52218059
Element set:     999 
Inclination:       31.0049 deg
RA of node:       280.4043 deg
Eccentricity:    0.0013994
Arg of perigee:    30.1847 deg
Mean anomaly:     329.9592 deg
Mean motion:   14.99394434 rev/day
Decay rate:       5.61E-06 rev/day^2
Epoch rev:            1790
Checksum:              316

Satellite: CHUBUSAT-3
Catalog number: 41339
Epoch time:      16168.43538701
Element set:     999 
Inclination:       31.0115 deg
RA of node:       274.3704 deg
Eccentricity:    0.0013680
Arg of perigee:    44.7341 deg
Mean anomaly:     315.4408 deg
Mean motion:   14.99624572 rev/day
Decay rate:       5.63E-06 rev/day^2
Epoch rev:            1801
Checksum:              290

Satellite: HORYU-IV
Catalog number: 41340
Epoch time:      16167.67519951
Element set:     999 
Inclination:       31.0071 deg
RA of node:       278.7529 deg
Eccentricity:    0.0014341
Arg of perigee:    42.4231 deg
Mean anomaly:     317.7511 deg
Mean motion:   15.00033055 rev/day
Decay rate:       8.94E-06 rev/day^2
Epoch rev:            1792
Checksum:              281

Satellite: OUFTI-1
Catalog number: 41458
Epoch time:      16167.81772459
Element set:     999 
Inclination:       98.2114 deg
RA of node:       178.2299 deg
Eccentricity:    0.0178931
Arg of perigee:    72.4708 deg
Mean anomaly:     289.5984 deg
Mean motion:   15.01049018 rev/day
Decay rate:      4.339E-05 rev/day^2
Epoch rev:             757
Checksum:              355

Satellite: E-ST@R-II
Catalog number: 41459
Epoch time:      16168.48403334
Element set:     999 
Inclination:       98.2120 deg
RA of node:       178.9354 deg
Eccentricity:    0.0178895
Arg of perigee:    70.2748 deg
Mean anomaly:     291.7681 deg
Mean motion:   15.01049765 rev/day
Decay rate:      4.221E-05 rev/day^2
Epoch rev:             767
Checksum:              337

Satellite: AAUSAT 4
Catalog number: 41460
Epoch time:      16168.41488900
Element set:     999 
Inclination:       98.2109 deg
RA of node:       178.8684 deg
Eccentricity:    0.0178172
Arg of perigee:    70.5790 deg
Mean anomaly:     291.4620 deg
Mean motion:   15.01206226 rev/day
Decay rate:      5.972E-05 rev/day^2
Epoch rev:             766
Checksum:              326

Satellite: MINXSS
Catalog number: 41474
Epoch time:      16168.29261668
Element set:     999 
Inclination:       51.6450 deg
RA of node:        62.1625 deg
Eccentricity:    0.0003254
Arg of perigee:   120.1353 deg
Mean anomaly:     333.1098 deg
Mean motion:   15.56874489 rev/day
Decay rate:     3.0826E-04 rev/day^2
Epoch rev:             479
Checksum:              311

Satellite: CADRE
Catalog number: 41475
Epoch time:      16168.35261727
Element set:     999 
Inclination:       51.6437 deg
RA of node:        61.7812 deg
Eccentricity:    0.0003471
Arg of perigee:   144.6235 deg
Mean anomaly:     323.6326 deg
Mean motion:   15.57587410 rev/day
Decay rate:     3.9371E-04 rev/day^2
Epoch rev:             480
Checksum:              304

Satellite: STMSAT-1
Catalog number: 41476
Epoch time:      16168.10988987
Element set:     999 
Inclination:       51.6446 deg
RA of node:        63.0721 deg
Eccentricity:    0.0003045
Arg of perigee:   125.6443 deg
Mean anomaly:      25.6910 deg
Mean motion:   15.56913356 rev/day
Decay rate:     2.7181E-04 rev/day^2
Epoch rev:             467
Checksum:              315

Satellite: NODES 1
Catalog number: 41477
Epoch time:      16168.11395894
Element set:     999 
Inclination:       51.6441 deg
RA of node:        63.1017 deg
Eccentricity:    0.0003862
Arg of perigee:   137.7915 deg
Mean anomaly:      13.2746 deg
Mean motion:   15.56499489 rev/day
Decay rate:     1.9991E-04 rev/day^2
Epoch rev:             467
Checksum:              340

Satellite: NODES 2
Catalog number: 41478
Epoch time:      16168.11429572
Element set:     999 
Inclination:       51.6456 deg
RA of node:        63.1028 deg
Eccentricity:    0.0003150
Arg of perigee:   121.2173 deg
Mean anomaly:      29.1664 deg
Mean motion:   15.56469200 rev/day
Decay rate:     1.9632E-04 rev/day^2
Epoch rev:             467
Checksum:              290

Satellite: ZIYUAN 3-2 (ZY 3-2)
Catalog number: 41556
Epoch time:      16168.39376071
Element set:     999 
Inclination:       97.4990 deg
RA of node:       241.5051 deg
Eccentricity:    0.0010134
Arg of perigee:   206.1233 deg
Mean anomaly:     215.2423 deg
Mean motion:   15.23989005 rev/day
Decay rate:      1.754E-05 rev/day^2
Epoch rev:             263
Checksum:              297

Satellite: NUSAT 1 (FRESCO)
Catalog number: 41557
Epoch time:      16168.45835313
Element set:     999 
Inclination:       97.4985 deg
RA of node:       241.5993 deg
Eccentricity:    0.0013603
Arg of perigee:   211.3286 deg
Mean anomaly:     277.1635 deg
Mean motion:   15.25305077 rev/day
Decay rate:      2.711E-05 rev/day^2
Epoch rev:             264
Checksum:              312

Satellite: NUSAT 2 (BATATA)
Catalog number: 41558
Epoch time:      16168.39475256
Element set:     999 
Inclination:       97.5003 deg
RA of node:       241.5366 deg
Eccentricity:    0.0013146
Arg of perigee:   209.5797 deg
Mean anomaly:     281.1517 deg
Mean motion:   15.25163852 rev/day
Decay rate:      2.681E-05 rev/day^2
Epoch rev:             263
Checksum:              319

